start=new Date('2022-02-12T00:00:00.000Z').valueOf();
sats=[{"SEMIMAJOR_AXIS":"6925.339","CENTER_NAME":"EARTH","ARG_OF_PERICENTER":"72.7467","TIME_SYSTEM":"UTC","INCLINATION":"53.0550","MEAN_MOTION_DDOT":"0.0000000000000","SITE":"AFETR","MEAN_MOTION_DOT":"0.00000245","TLE_LINE2":"2 45234  53.0550 241.4022 0001614  72.7467 287.3698 15.06403272109821","DECAY_DATE":null,"PERIOD":"95.592","RA_OF_ASC_NODE":"241.4022","GP_ID":"195758608","ELEMENT_SET_NO":"999","MEAN_ELEMENT_THEORY":"SGP4","BSTAR":"0.00003533600000","COUNTRY_CODE":"US","REV_AT_EPOCH":"10982","PERIAPSIS":"546.086","OBJECT_NAME":"STARLINK-1243","ECCENTRICITY":"0.00016140","MEAN_ANOMALY":"287.3698","EPOCH":"2022-02-11T19:47:32.193888","LAUNCH_DATE":"2020-02-17","TLE_LINE1":"1 45234U 20012BJ  22042.82467817  .00000245  00000-0  35336-4 0  9991","CLASSIFICATION_TYPE":"U","NORAD_CAT_ID":"45234","RCS_SIZE":"LARGE","EPHEMERIS_TYPE":"0","APOAPSIS":"548.321","FILE":"3297851","OBJECT_TYPE":"PAYLOAD","OBJECT_ID":"2020-012BJ","MEAN_MOTION":"15.06403272","REF_FRAME":"TEME"},{"MEAN_MOTION_DDOT":"0.0000000000000","INCLINATION":"53.0527","TLE_LINE2":"2 45235  53.0527 243.8732 0001718  68.7257 291.3915 15.06415486110679","MEAN_MOTION_DOT":"0.00004131","SITE":"AFETR","CENTER_NAME":"EARTH","SEMIMAJOR_AXIS":"6925.301","TIME_SYSTEM":"UTC","ARG_OF_PERICENTER":"68.7257","BSTAR":"0.00029595000000","COUNTRY_CODE":"US","REV_AT_EPOCH":"11067","RA_OF_ASC_NODE":"243.8732","DECAY_DATE":null,"PERIOD":"95.591","MEAN_ELEMENT_THEORY":"SGP4","ELEMENT_SET_NO":"999","GP_ID":"195750331","TLE_LINE1":"1 45235U 20012BK  22042.27916705  .00004131  00000-0  29595-3 0  9993","LAUNCH_DATE":"2020-02-17","RCS_SIZE":"LARGE","EPHEMERIS_TYPE":"0","NORAD_CAT_ID":"45235","CLASSIFICATION_TYPE":"U","EPOCH":"2022-02-11T06:42:00.033120","MEAN_ANOMALY":"291.3915","PERIAPSIS":"545.976","ECCENTRICITY":"0.00017180","OBJECT_NAME":"STARLINK-1246","MEAN_MOTION":"15.06415486","REF_FRAME":"TEME","APOAPSIS":"548.356","OBJECT_TYPE":"PAYLOAD","OBJECT_ID":"2020-012BK","FILE":"3297735"},{"GP_ID":"195759101","ELEMENT_SET_NO":"999","MEAN_ELEMENT_THEORY":"SGP4","DECAY_DATE":null,"PERIOD":"95.592","RA_OF_ASC_NODE":"201.8560","REV_AT_EPOCH":"11034","COUNTRY_CODE":"US","BSTAR":"0.00006591000000","ARG_OF_PERICENTER":"59.7882","TIME_SYSTEM":"UTC","CENTER_NAME":"EARTH","SEMIMAJOR_AXIS":"6925.349","SITE":"AFETR","MEAN_MOTION_DOT":"0.00000700","TLE_LINE2":"2 45236  53.0536 201.8560 0001768  59.7882 300.3282 15.06399977110340","INCLINATION":"53.0536","MEAN_MOTION_DDOT":"0.0000000000000","FILE":"3297851","OBJECT_ID":"2020-012BL","OBJECT_TYPE":"PAYLOAD","APOAPSIS":"548.438","REF_FRAME":"TEME","MEAN_MOTION":"15.06399977","PERIAPSIS":"545.989","ECCENTRICITY":"0.00017680","OBJECT_NAME":"STARLINK-1247","MEAN_ANOMALY":"300.3282","EPOCH":"2022-02-11T17:24:13.078368","CLASSIFICATION_TYPE":"U","NORAD_CAT_ID":"45236","RCS_SIZE":"LARGE","EPHEMERIS_TYPE":"0","TLE_LINE1":"1 45236U 20012BL  22042.72515137  .00000700  00000-0  65910-4 0  9998","LAUNCH_DATE":"2020-02-17"},{"OBJECT_TYPE":"PAYLOAD","OBJECT_ID":"2020-012BM","FILE":"3297852","APOAPSIS":"548.288","REF_FRAME":"TEME","MEAN_MOTION":"15.06399012","MEAN_ANOMALY":"286.1422","EPOCH":"2022-02-11T17:56:04.163424","OBJECT_NAME":"STARLINK-1270","PERIAPSIS":"546.145","ECCENTRICITY":"0.00015470","RCS_SIZE":"LARGE","EPHEMERIS_TYPE":"0","NORAD_CAT_ID":"45237","CLASSIFICATION_TYPE":"U","TLE_LINE1":"1 45237U 20012BM  22042.74727041  .00001247  00000-0  10259-3 0  9992","LAUNCH_DATE":"2020-02-17","MEAN_ELEMENT_THEORY":"SGP4","ELEMENT_SET_NO":"999","GP_ID":"195759118","RA_OF_ASC_NODE":"201.7770","PERIOD":"95.592","DECAY_DATE":null,"REV_AT_EPOCH":"11034","COUNTRY_CODE":"US","BSTAR":"0.00010259000000","TIME_SYSTEM":"UTC","ARG_OF_PERICENTER":"73.9737","CENTER_NAME":"EARTH","SEMIMAJOR_AXIS":"6925.352","TLE_LINE2":"2 45237  53.0550 201.7770 0001547  73.9737 286.1422 15.06399012110348","MEAN_MOTION_DOT":"0.00001247","SITE":"AFETR","MEAN_MOTION_DDOT":"0.0000000000000","INCLINATION":"53.0550"},{"MEAN_MOTION_DDOT":"0.0000000000000","INCLINATION":"53.0562","TLE_LINE2":"2 45360  53.0562 332.8423 0001791  66.3078 293.8098 15.06421797105988","SITE":"AFETR","MEAN_MOTION_DOT":"0.00001135","SEMIMAJOR_AXIS":"6925.282","CENTER_NAME":"EARTH","ARG_OF_PERICENTER":"66.3078","TIME_SYSTEM":"UTC","BSTAR":"0.00009502900000","COUNTRY_CODE":"US","REV_AT_EPOCH":"10598","PERIOD":"95.591","DECAY_DATE":null,"RA_OF_ASC_NODE":"332.8423","MEAN_ELEMENT_THEORY":"SGP4","GP_ID":"195751347","ELEMENT_SET_NO":"999","TLE_LINE1":"1 45360U 20019A   22042.50675156  .00001135  00000-0  95029-4 0  9994","LAUNCH_DATE":"2020-03-18","RCS_SIZE":"LARGE","EPHEMERIS_TYPE":"0","CLASSIFICATION_TYPE":"U","NORAD_CAT_ID":"45360","PERIAPSIS":"545.906","ECCENTRICITY":"0.00017910","OBJECT_NAME":"STARLINK-1279","MEAN_ANOMALY":"293.8098","EPOCH":"2022-02-11T12:09:43.334784","MEAN_MOTION":"15.06421797","REF_FRAME":"TEME","APOAPSIS":"548.387","FILE":"3297735","OBJECT_TYPE":"PAYLOAD","OBJECT_ID":"2020-019A"},{"MEAN_MOTION_DDOT":"0.0000000000000","INCLINATION":"53.0562","TLE_LINE2":"2 45361  53.0562 342.5980 0001558  74.1029 286.0132 15.06409703105862","SITE":"AFETR","MEAN_MOTION_DOT":"0.00001391","CENTER_NAME":"EARTH","SEMIMAJOR_AXIS":"6925.319","ARG_OF_PERICENTER":"74.1029","TIME_SYSTEM":"UTC","BSTAR":"0.00011225000000","REV_AT_EPOCH":"10586","COUNTRY_CODE":"US","DECAY_DATE":null,"PERIOD":"95.592","RA_OF_ASC_NODE":"342.5980","MEAN_ELEMENT_THEORY":"SGP4","GP_ID":"195750095","ELEMENT_SET_NO":"999","LAUNCH_DATE":"2020-03-18","TLE_LINE1":"1 45361U 20019B   22042.56111965  .00001391  00000-0  11225-3 0  9993","RCS_SIZE":"LARGE","EPHEMERIS_TYPE":"0","CLASSIFICATION_TYPE":"U","NORAD_CAT_ID":"45361","PERIAPSIS":"546.105","ECCENTRICITY":"0.00015580","OBJECT_NAME":"STARLINK-1301","MEAN_ANOMALY":"286.0132","EPOCH":"2022-02-11T13:28:00.737760","MEAN_MOTION":"15.06409703","REF_FRAME":"TEME","APOAPSIS":"548.263","FILE":"3297735","OBJECT_TYPE":"PAYLOAD","OBJECT_ID":"2020-019B"},{"OBJECT_TYPE":"PAYLOAD","OBJECT_ID":"2020-019C","FILE":"3297735","APOAPSIS":"548.261","REF_FRAME":"TEME","MEAN_MOTION":"15.06410921","MEAN_ANOMALY":"296.3949","EPOCH":"2022-02-11T09:47:44.975616","PERIAPSIS":"546.099","ECCENTRICITY":"0.00015610","OBJECT_NAME":"STARLINK-1306","RCS_SIZE":"LARGE","EPHEMERIS_TYPE":"0","NORAD_CAT_ID":"45362","CLASSIFICATION_TYPE":"U","TLE_LINE1":"1 45362U 20019C   22042.40815944  .00002963  00000-0  21768-3 0  9994","LAUNCH_DATE":"2020-03-18","MEAN_ELEMENT_THEORY":"SGP4","ELEMENT_SET_NO":"999","GP_ID":"195750345","RA_OF_ASC_NODE":"3.2827","PERIOD":"95.591","DECAY_DATE":null,"COUNTRY_CODE":"US","REV_AT_EPOCH":"10555","BSTAR":"0.00021768000000","TIME_SYSTEM":"UTC","ARG_OF_PERICENTER":"63.7200","CENTER_NAME":"EARTH","SEMIMAJOR_AXIS":"6925.315","TLE_LINE2":"2 45362  53.0554   3.2827 0001561  63.7200 296.3949 15.06410921105554","MEAN_MOTION_DOT":"0.00002963","SITE":"AFETR","MEAN_MOTION_DDOT":"0.0000000000000","INCLINATION":"53.0554"},{"DECAY_DATE":null,"PERIOD":"95.591","RA_OF_ASC_NODE":"332.8644","MEAN_ELEMENT_THEORY":"SGP4","GP_ID":"195751597","ELEMENT_SET_NO":"999","BSTAR":"0.00021470000000","REV_AT_EPOCH":"10598","COUNTRY_CODE":"US","CENTER_NAME":"EARTH","SEMIMAJOR_AXIS":"6925.317","ARG_OF_PERICENTER":"59.2358","TIME_SYSTEM":"UTC","MEAN_MOTION_DDOT":"0.0000000000000","INCLINATION":"53.0550","TLE_LINE2":"2 45364  53.0550 332.8644 0001730  59.2358 300.8801 15.06410205105982","SITE":"AFETR","MEAN_MOTION_DOT":"0.00002919","APOAPSIS":"548.380","FILE":"3297735","OBJECT_TYPE":"PAYLOAD","OBJECT_ID":"2020-019E","MEAN_MOTION":"15.06410205","REF_FRAME":"TEME","PERIAPSIS":"545.984","ECCENTRICITY":"0.00017300","OBJECT_NAME":"STARLINK-1313","MEAN_ANOMALY":"300.8801","EPOCH":"2022-02-11T12:04:25.848480","LAUNCH_DATE":"2020-03-18","TLE_LINE1":"1 45364U 20019E   22042.50307695  .00002919  00000-0  21470-3 0  9997","EPHEMERIS_TYPE":"0","RCS_SIZE":"LARGE","CLASSIFICATION_TYPE":"U","NORAD_CAT_ID":"45364"},{"APOAPSIS":"550.814","FILE":"3297363","OBJECT_ID":"2020-019F","OBJECT_TYPE":"PAYLOAD","MEAN_MOTION":"15.05608725","REF_FRAME":"TEME","ECCENTRICITY":"0.00016950","PERIAPSIS":"548.466","OBJECT_NAME":"STARLINK-1317","MEAN_ANOMALY":"291.6974","EPOCH":"2022-02-11T05:50:50.187552","LAUNCH_DATE":"2020-03-18","TLE_LINE1":"1 45365U 20019F   22042.24363643  .00007576  00000-0  53815-3 0  9996","CLASSIFICATION_TYPE":"U","NORAD_CAT_ID":"45365","RCS_SIZE":"LARGE","EPHEMERIS_TYPE":"0","PERIOD":"95.642","DECAY_DATE":null,"RA_OF_ASC_NODE":"344.0397","GP_ID":"195723020","ELEMENT_SET_NO":"999","MEAN_ELEMENT_THEORY":"SGP4","BSTAR":"0.00053815000000","COUNTRY_CODE":"US","REV_AT_EPOCH":"10577","SEMIMAJOR_AXIS":"6927.775","CENTER_NAME":"EARTH","ARG_OF_PERICENTER":"68.4195","TIME_SYSTEM":"UTC","INCLINATION":"53.0001","MEAN_MOTION_DDOT":"0.0000000000000","SITE":"AFETR","MEAN_MOTION_DOT":"0.00007576","TLE_LINE2":"2 45365  53.0001 344.0397 0001695  68.4195 291.6974 15.05608725105775"},{"MEAN_MOTION_DDOT":"0.0000000000000","INCLINATION":"53.0552","TLE_LINE2":"2 45366  53.0552   2.4484 0001616  64.0867 296.0288 15.06392184105597","MEAN_MOTION_DOT":"-0.00002901","SITE":"AFETR","SEMIMAJOR_AXIS":"6925.373","CENTER_NAME":"EARTH","TIME_SYSTEM":"UTC","ARG_OF_PERICENTER":"64.0867","BSTAR":"-0.00017597000000","COUNTRY_CODE":"US","REV_AT_EPOCH":"10559","RA_OF_ASC_NODE":"2.4484","PERIOD":"95.593","DECAY_DATE":null,"MEAN_ELEMENT_THEORY":"SGP4","ELEMENT_SET_NO":"999","GP_ID":"195761514","TLE_LINE1":"1 45366U 20019G   22042.59246516 -.00002901  00000-0 -17597-3 0  9990","LAUNCH_DATE":"2020-03-18","RCS_SIZE":"LARGE","EPHEMERIS_TYPE":"0","NORAD_CAT_ID":"45366","CLASSIFICATION_TYPE":"U","MEAN_ANOMALY":"296.0288","EPOCH":"2022-02-11T14:13:08.989824","OBJECT_NAME":"STARLINK-1262","PERIAPSIS":"546.118","ECCENTRICITY":"0.00016160","MEAN_MOTION":"15.06392184","REF_FRAME":"TEME","APOAPSIS":"548.357","OBJECT_TYPE":"PAYLOAD","OBJECT_ID":"2020-019G","FILE":"3297969"}];
